{
  "norad_id": 53482,
  "name": "STARLINK-4360",
  "history": [
    {
      "epoch": "2026-05-02T07:04:00.854112Z",
      "apogee_km": 550.1323986231373,
      "perigee_km": 548.8660267234609,
      "latitude_deg": -3.233568103587461e-06,
      "longitude_deg": -83.27691387389267,
      "height_km": 552.4015324352786,
      "semi_major_axis_km": 6927.636212673298,
      "eccentricity": 9.14e-05,
      "inclination_deg": 97.5437,
      "raan_deg": 242.9412,
      "arg_perigee_deg": 75.0673,
      "mean_anomaly_deg": 285.0655,
      "mean_motion_rev_day": 15.05653893
    },
    {
      "epoch": "2026-05-03T05:23:48.334272Z",
      "apogee_km": 549.7515336003362,
      "perigee_km": 549.2430452434937,
      "latitude_deg": -8.091054083927061e-05,
      "longitude_deg": -58.23239448298126,
      "height_km": 552.7487685640797,
      "semi_major_axis_km": 6927.634289421915,
      "eccentricity": 3.67e-05,
      "inclination_deg": 97.5403,
      "raan_deg": 243.8506,
      "arg_perigee_deg": 136.6328,
      "mean_anomaly_deg": 223.4927,
      "mean_motion_rev_day": 15.0565452
    },
    {
      "epoch": "2026-05-04T06:55:00.936192Z",
      "apogee_km": 550.2297819401447,
      "perigee_km": 548.7648643861685,
      "latitude_deg": -3.943426892069544e-05,
      "longitude_deg": -81.04438732971911,
      "height_km": 552.0510933753205,
      "semi_major_axis_km": 6927.634323163156,
      "eccentricity": 0.00010573,
      "inclination_deg": 97.5368,
      "raan_deg": 244.8892,
      "arg_perigee_deg": 45.6471,
      "mean_anomaly_deg": 314.4842,
      "mean_motion_rev_day": 15.05654509
    },
    {
      "epoch": "2026-05-05T18:00:24.490080Z",
      "apogee_km": 549.649492939684,
      "perigee_km": 549.3654595161597,
      "latitude_deg": -1.9031478292670567e-05,
      "longitude_deg": 112.5946733434683,
      "height_km": 552.4335804070961,
      "semi_major_axis_km": 6927.644476227922,
      "eccentricity": 2.05e-05,
      "inclination_deg": 97.5329,
      "raan_deg": 246.3175,
      "arg_perigee_deg": 353.4527,
      "mean_anomaly_deg": 6.6697,
      "mean_motion_rev_day": 15.05651199
    },
    {
      "epoch": "2026-05-06T19:31:36.812928Z",
      "apogee_km": 549.8387315689597,
      "perigee_km": 549.1861469917803,
      "latitude_deg": 1.4422898119966814e-06,
      "longitude_deg": 89.7817485432258,
      "height_km": 552.862133795929,
      "semi_major_axis_km": 6927.64943928037,
      "eccentricity": 4.71e-05,
      "inclination_deg": 97.5251,
      "raan_deg": 247.354,
      "arg_perigee_deg": 149.9991,
      "mean_anomaly_deg": 210.1263,
      "mean_motion_rev_day": 15.05649581
    },
    {
      "epoch": "2026-05-07T19:27:06.787008Z",
      "apogee_km": 549.7870946137773,
      "perigee_km": 549.2508940398166,
      "latitude_deg": 1.5815925980903547e-05,
      "longitude_deg": 90.89678660253996,
      "height_km": 552.8447469709175,
      "semi_major_axis_km": 6927.655994326797,
      "eccentricity": 3.87e-05,
      "inclination_deg": 97.5223,
      "raan_deg": 248.3265,
      "arg_perigee_deg": 164.5109,
      "mean_anomaly_deg": 195.613,
      "mean_motion_rev_day": 15.05647444
    },
    {
      "epoch": "2026-05-08T20:58:18.752160Z",
      "apogee_km": 549.9731176815712,
      "perigee_km": 549.015719019556,
      "latitude_deg": -5.495512968629051e-05,
      "longitude_deg": 68.08236921231746,
      "height_km": 553.0408728160156,
      "semi_major_axis_km": 6927.631418350564,
      "eccentricity": 6.91e-05,
      "inclination_deg": 97.5168,
      "raan_deg": 249.36,
      "arg_perigee_deg": 179.6548,
      "mean_anomaly_deg": 180.4679,
      "mean_motion_rev_day": 15.05655456
    },
    {
      "epoch": "2026-05-09T19:18:06.839712Z",
      "apogee_km": 549.8322708233864,
      "perigee_km": 549.1783013915774,
      "latitude_deg": 4.2616915083623636e-05,
      "longitude_deg": 93.123528158281,
      "height_km": 552.8996443380288,
      "semi_major_axis_km": 6927.642286107482,
      "eccentricity": 4.72e-05,
      "inclination_deg": 97.5152,
      "raan_deg": 250.2686,
      "arg_perigee_deg": 177.3139,
      "mean_anomaly_deg": 182.8091,
      "mean_motion_rev_day": 15.05651913
    },
    {
      "epoch": "2026-05-10T20:49:19.050240Z",
      "apogee_km": 549.7448518599131,
      "perigee_km": 549.2862412613313,
      "latitude_deg": -9.955906562212005e-06,
      "longitude_deg": 70.30768503149821,
      "height_km": 552.6949472096766,
      "semi_major_axis_km": 6927.652546560622,
      "eccentricity": 3.31e-05,
      "inclination_deg": 97.5097,
      "raan_deg": 251.3017,
      "arg_perigee_deg": 119.2246,
      "mean_anomaly_deg": 240.9014,
      "mean_motion_rev_day": 15.05648568
    },
    {
      "epoch": "2026-05-11T20:44:48.943104Z",
      "apogee_km": 549.8468256326414,
      "perigee_km": 549.1485200576199,
      "latitude_deg": -2.6305215894528424e-05,
      "longitude_deg": 71.42246972480302,
      "height_km": 552.8373448603603,
      "semi_major_axis_km": 6927.634672845131,
      "eccentricity": 5.04e-05,
      "inclination_deg": 97.5033,
      "raan_deg": 252.2736,
      "arg_perigee_deg": 141.1817,
      "mean_anomaly_deg": 218.9446,
      "mean_motion_rev_day": 15.05654395
    },
    {
      "epoch": "2026-05-12T20:40:19.088256Z",
      "apogee_km": 549.9668149308791,
      "perigee_km": 549.09531428835,
      "latitude_deg": 1.3168640518747794e-05,
      "longitude_deg": 72.53249368890903,
      "height_km": 552.9493763272455,
      "semi_major_axis_km": 6927.668064609614,
      "eccentricity": 6.29e-05,
      "inclination_deg": 97.5002,
      "raan_deg": 253.2418,
      "arg_perigee_deg": 143.5882,
      "mean_anomaly_deg": 216.5388,
      "mean_motion_rev_day": 15.05643509
    },
    {
      "epoch": "2026-05-13T07:50:13.684128Z",
      "apogee_km": 550.2207734744043,
      "perigee_km": 549.0014898032359,
      "latitude_deg": 5.224589074654081e-05,
      "longitude_deg": -94.95173099516343,
      "height_km": 553.2068975439132,
      "semi_major_axis_km": 6927.748131638819,
      "eccentricity": 8.8e-05,
      "inclination_deg": 97.4985,
      "raan_deg": 253.6936,
      "arg_perigee_deg": 150.042,
      "mean_anomaly_deg": 210.0858,
      "mean_motion_rev_day": 15.05617407
    },
    {
      "epoch": "2026-05-14T07:45:42.864192Z",
      "apogee_km": 550.1676758138128,
      "perigee_km": 548.8742820691441,
      "latitude_deg": 2.899392306903105e-05,
      "longitude_deg": -93.83406652416673,
      "height_km": 553.1944810584099,
      "semi_major_axis_km": 6927.657978941478,
      "eccentricity": 9.335e-05,
      "inclination_deg": 97.494,
      "raan_deg": 254.6654,
      "arg_perigee_deg": 159.4547,
      "mean_anomaly_deg": 200.6718,
      "mean_motion_rev_day": 15.05646797
    },
    {
      "epoch": "2026-05-15T07:41:13.484544Z",
      "apogee_km": 549.9726250110098,
      "perigee_km": 549.1044487127301,
      "latitude_deg": -1.4079189931315318e-05,
      "longitude_deg": -92.72821772173405,
      "height_km": 552.6667394274842,
      "semi_major_axis_km": 6927.67553686187,
      "eccentricity": 6.266e-05,
      "inclination_deg": 97.4879,
      "raan_deg": 255.6314,
      "arg_perigee_deg": 98.0332,
      "mean_anomaly_deg": 262.0966,
      "mean_motion_rev_day": 15.05641073
    },
    {
      "epoch": "2026-05-16T18:46:36.912288Z",
      "apogee_km": 550.4213438754987,
      "perigee_km": 548.6492453025421,
      "latitude_deg": -5.114052883552796e-07,
      "longitude_deg": 100.89917418115633,
      "height_km": 552.324085189135,
      "semi_major_axis_km": 6927.67229458902,
      "eccentricity": 0.0001279,
      "inclination_deg": 97.4825,
      "raan_deg": 257.0475,
      "arg_perigee_deg": 288.5221,
      "mean_anomaly_deg": 71.5867,
      "mean_motion_rev_day": 15.0564213
    }
  ]
}